{
  "type": "FeatureCollection",
  "features": [
    {
      "type": "Feature",
      "properties": {
        "norad_id": 66174,
        "name": "HTV-X1",
        "group": "stations",
        "lat": 41.497229732598605,
        "lon": -74.4377601362649,
        "alt_km": 413.39828662681884,
        "timestamp": "2025-12-11T05:00:25.096190+00:00",
        "meta_object_name": "HTV-X1",
        "meta_object_id": "2025-241A",
        "meta_epoch": "2025-12-10T22:17:24.112320",
        "meta_mean_motion": 15.49489378,
        "meta_eccentricity": 0.00033509,
        "meta_inclination": 51.6309,
        "meta_ra_of_asc_node": 151.4463,
        "meta_arg_of_pericenter": 232.8214,
        "meta_mean_anomaly": 127.2469,
        "meta_ephemeris_type": 0,
        "meta_classification_type": "U",
        "meta_norad_cat_id": 66174,
        "meta_element_set_no": 999,
        "meta_rev_at_epoch": 51,
        "meta_bstar": 0.00026508679,
        "meta_mean_motion_dot": 0.00014434,
        "meta_mean_motion_ddot": 0,
        "tle_line1": "1 66174U 25241A   25344.92875130  .00014434  00000+0  26509-3 0  9991",
        "tle_line2": "2 66174  51.6309 151.4463 0003350 232.8214 127.2469 15.49489378   512"
      },
      "geometry": {
        "type": "Point",
        "coordinates": [
          -74.4377601362649,
          41.497229732598605
        ]
      }
    },
    {
      "type": "Feature",
      "properties": {
        "norad_id": 66515,
        "name": "SZ-21 MODULE",
        "group": "stations",
        "lat": 37.19133200057035,
        "lon": 84.58612179038896,
        "alt_km": 378.9248378527136,
        "timestamp": "2025-12-11T05:00:25.096200+00:00",
        "meta_object_name": "SZ-21 MODULE",
        "meta_object_id": "2025-246C",
        "meta_epoch": "2025-12-10T11:51:01.003968",
        "meta_mean_motion": 15.62311534,
        "meta_eccentricity": 0.00062785,
        "meta_inclination": 41.4772,
        "meta_ra_of_asc_node": 29.7454,
        "meta_arg_of_pericenter": 248.1298,
        "meta_mean_anomaly": 111.8874,
        "meta_ephemeris_type": 0,
        "meta_classification_type": "U",
        "meta_norad_cat_id": 66515,
        "meta_element_set_no": 999,
        "meta_rev_at_epoch": 409,
        "meta_bstar": 0.00039110764,
        "meta_mean_motion_dot": 0.00035412,
        "meta_mean_motion_ddot": 0,
        "tle_line1": "1 66515U 25246C   25344.49376162  .00035412  00000+0  39111-3 0  9990",
        "tle_line2": "2 66515  41.4772  29.7454 0006278 248.1298 111.8874 15.62311534  4092"
      },
      "geometry": {
        "type": "Point",
        "coordinates": [
          84.58612179038896,
          37.19133200057035
        ]
      }
    },
    {
      "type": "Feature",
      "properties": {
        "norad_id": 66645,
        "name": "SHENZHOU-22",
        "group": "stations",
        "lat": 2.644908082431553,
        "lon": -156.9968481648133,
        "alt_km": 395.04212979443037,
        "timestamp": "2025-12-11T05:00:25.096210+00:00",
        "meta_object_name": "SHENZHOU-22",
        "meta_object_id": "2025-272A",
        "meta_epoch": "2025-12-10T20:34:09.975360",
        "meta_mean_motion": 15.59054125,
        "meta_eccentricity": 0.0008705,
        "meta_inclination": 41.4684,
        "meta_ra_of_asc_node": 28.1364,
        "meta_arg_of_pericenter": 14.9689,
        "meta_mean_anomaly": 345.1405,
        "meta_ephemeris_type": 0,
        "meta_classification_type": "U",
        "meta_norad_cat_id": 66645,
        "meta_element_set_no": 999,
        "meta_rev_at_epoch": 26357,
        "meta_bstar": 0.00042990708,
        "meta_mean_motion_dot": 0.0003436,
        "meta_mean_motion_ddot": 0,
        "tle_line1": "1 66645U 25272A   25344.85705990  .00034360  00000+0  42991-3 0  9999",
        "tle_line2": "2 66645  41.4684  28.1364 0008705  14.9689 345.1405 15.59054125263579"
      },
      "geometry": {
        "type": "Point",
        "coordinates": [
          -156.9968481648133,
          2.644908082431553
        ]
      }
    },
    {
      "type": "Feature",
      "properties": {
        "norad_id": 66664,
        "name": "SOYUZ-MS 28",
        "group": "stations",
        "lat": 41.49722864777664,
        "lon": -74.43775799001659,
        "alt_km": 413.39828672210297,
        "timestamp": "2025-12-11T05:00:25.096220+00:00",
        "meta_object_name": "SOYUZ-MS 28",
        "meta_object_id": "2025-275A",
        "meta_epoch": "2025-12-10T22:17:24.112320",
        "meta_mean_motion": 15.49489378,
        "meta_eccentricity": 0.00033509,
        "meta_inclination": 51.6309,
        "meta_ra_of_asc_node": 151.4463,
        "meta_arg_of_pericenter": 232.8214,
        "meta_mean_anomaly": 127.2469,
        "meta_ephemeris_type": 0,
        "meta_classification_type": "U",
        "meta_norad_cat_id": 66664,
        "meta_element_set_no": 999,
        "meta_rev_at_epoch": 128,
        "meta_bstar": 0.00026508679,
        "meta_mean_motion_dot": 0.00014434,
        "meta_mean_motion_ddot": 0,
        "tle_line1": "1 66664U 25275A   25344.92875130  .00014434  00000+0  26509-3 0  9992",
        "tle_line2": "2 66664  51.6309 151.4463 0003350 232.8214 127.2469 15.49489378  1281"
      },
      "geometry": {
        "type": "Point",
        "coordinates": [
          -74.43775799001659,
          41.49722864777664
        ]
      }
    },
    {
      "type": "Feature",
      "properties": {
        "norad_id": 66906,
        "name": "1998-067XS",
        "group": "stations",
        "lat": 25.69615966735257,
        "lon": -52.40049671699585,
        "alt_km": 410.6417551644645,
        "timestamp": "2025-12-11T05:00:25.096229+00:00",
        "meta_object_name": "1998-067XS",
        "meta_object_id": "1998-067XS",
        "meta_epoch": "2025-12-10T19:05:48.365088",
        "meta_mean_motion": 15.50409035,
        "meta_eccentricity": 0.00037964,
        "meta_inclination": 51.6302,
        "meta_ra_of_asc_node": 152.0585,
        "meta_arg_of_pericenter": 193.8715,
        "meta_mean_anomaly": 166.217,
        "meta_ephemeris_type": 0,
        "meta_classification_type": "U",
        "meta_norad_cat_id": 66906,
        "meta_element_set_no": 999,
        "meta_rev_at_epoch": 131,
        "meta_bstar": 0.0006657488,
        "meta_mean_motion_dot": 0.00038284,
        "meta_mean_motion_ddot": 0,
        "tle_line1": "1 66906U 98067XS  25344.79569867  .00038284  00000+0  66575-3 0  9998",
        "tle_line2": "2 66906  51.6302 152.0585 0003796 193.8715 166.2170 15.50409035  1311"
      },
      "geometry": {
        "type": "Point",
        "coordinates": [
          -52.40049671699585,
          25.69615966735257
        ]
      }
    },
    {
      "type": "Feature",
      "properties": {
        "norad_id": 66907,
        "name": "1998-067XT",
        "group": "stations",
        "lat": 17.7519032737856,
        "lon": -44.70741804073613,
        "alt_km": 409.8903109809762,
        "timestamp": "2025-12-11T05:00:25.096239+00:00",
        "meta_object_name": "1998-067XT",
        "meta_object_id": "1998-067XT",
        "meta_epoch": "2025-12-09T12:07:37.114752",
        "meta_mean_motion": 15.50864429,
        "meta_eccentricity": 0.00048036,
        "meta_inclination": 51.6307,
        "meta_ra_of_asc_node": 158.4423,
        "meta_arg_of_pericenter": 208.5081,
        "meta_mean_anomaly": 151.5646,
        "meta_ephemeris_type": 0,
        "meta_classification_type": "U",
        "meta_norad_cat_id": 66907,
        "meta_element_set_no": 999,
        "meta_rev_at_epoch": 111,
        "meta_bstar": 0.0012921241,
        "meta_mean_motion_dot": 0.00076342,
        "meta_mean_motion_ddot": 0,
        "tle_line1": "1 66907U 98067XT  25343.50529068  .00076342  00000+0  12921-2 0  9998",
        "tle_line2": "2 66907  51.6307 158.4423 0004803 208.5081 151.5646 15.50864429  1113"
      },
      "geometry": {
        "type": "Point",
        "coordinates": [
          -44.70741804073613,
          17.7519032737856
        ]
      }
    },
    {
      "type": "Feature",
      "properties": {
        "norad_id": 66908,
        "name": "1998-067XU",
        "group": "stations",
        "lat": 16.588963723806334,
        "lon": -43.667748421888454,
        "alt_km": 409.7626768369764,
        "timestamp": "2025-12-11T05:00:25.096249+00:00",
        "meta_object_name": "1998-067XU",
        "meta_object_id": "1998-067XU",
        "meta_epoch": "2025-12-10T15:57:23.331168",
        "meta_mean_motion": 15.51115637,
        "meta_eccentricity": 0.00048129,
        "meta_inclination": 51.6304,
        "meta_ra_of_asc_node": 152.6848,
        "meta_arg_of_pericenter": 213.5482,
        "meta_mean_anomaly": 146.5203,
        "meta_ephemeris_type": 0,
        "meta_classification_type": "U",
        "meta_norad_cat_id": 66908,
        "meta_element_set_no": 999,
        "meta_rev_at_epoch": 129,
        "meta_bstar": 0.0014713865,
        "meta_mean_motion_dot": 0.00087912,
        "meta_mean_motion_ddot": 0,
        "tle_line1": "1 66908U 98067XU  25344.66485337  .00087912  00000+0  14714-2 0  9994",
        "tle_line2": "2 66908  51.6304 152.6848 0004812 213.5482 146.5203 15.51115637  1292"
      },
      "geometry": {
        "type": "Point",
        "coordinates": [
          -43.667748421888454,
          16.588963723806334
        ]
      }
    }
  ]
}